[{"OBJECT_NAME":"STARLINK-35392","OBJECT_ID":"2025-221A","EPOCH":"2026-03-09T11:04:47.230464","MEAN_MOTION":15.30200294,"ECCENTRICITY":0.00012392,"INCLINATION":53.1595,"RA_OF_ASC_NODE":89.748,"ARG_OF_PERICENTER":87.318,"MEAN_ANOMALY":272.7963,"EPHEMERIS_TYPE":0,"CLASSIFICATION_TYPE":"U","NORAD_CAT_ID":65823,"ELEMENT_SET_NO":999,"REV_AT_EPOCH":2604,"BSTAR":0.0010804716,"MEAN_MOTION_DOT":0.00031778,"MEAN_MOTION_DDOT":0},{"OBJECT_NAME":"TRANSPORTER-1 OBJECT M","OBJECT_ID":"2021-006M","EPOCH":"2026-03-09T22:05:37.843296","MEAN_MOTION":15.3227845,"ECCENTRICITY":0.00102759,"INCLINATION":97.2377,"RA_OF_ASC_NODE":116.7915,"ARG_OF_PERICENTER":187.5492,"MEAN_ANOMALY":172.5597,"EPHEMERIS_TYPE":0,"CLASSIFICATION_TYPE":"U","NORAD_CAT_ID":47424,"ELEMENT_SET_NO":999,"REV_AT_EPOCH":28439,"BSTAR":0.00023985652,"MEAN_MOTION_DOT":7.411e-5,"MEAN_MOTION_DDOT":0}]
